NORAD_CAT_ID,OBJECT_NAME,OBJECT_TYPE,EPOCH,MEAN_MOTION,ECCENTRICITY,INCLINATION,RA_OF_ASC_NODE,ARG_OF_PERICENTER,MEAN_ANOMALY,BSTAR,MEAN_MOTION_DOT,MEAN_MOTION_DDOT,TLE_LINE0,TLE_LINE1,TLE_LINE2,SEMIMAJOR_AXIS,PERIOD,APOGEE,PERIGEE,DECAYED
52663.0,STARLINK-4037,PAYLOAD,2023-02-06 15:56:30,15.08852196,0.0001208,53.2162,173.5388,84.4955,275.6174,0.0001322,1.817e-05,0.0,0 STARLINK-4037,1 52663U 22053H   23037.66423741  .00001817  00000-0  13220-3 0  9990,2 52663  53.2162 173.5388 0001208  84.4955 275.6174 15.08852196 40904,6917.843,95.437,540.544,538.872,0.0
52663.0,STARLINK-4037,PAYLOAD,2023-02-07 07:50:22,15.08841308,0.0001204,53.2158,170.5639,98.9568,261.1561,9.5597e-05,1.234e-05,0.0,0 STARLINK-4037,1 52663U 22053H   23038.32664508  .00001234  00000-0  95597-4 0  9993,2 52663  53.2158 170.5639 0001204  98.9568 261.1561 15.08841308 41006,6917.876,95.437,540.574,538.908,0.0
52663.0,STARLINK-4037,PAYLOAD,2023-02-07 14:11:54,15.08848635,0.0001193,53.216,169.3771,90.6517,269.4612,0.00013806,1.911e-05,0.0,0 STARLINK-4037,1 52663U 22053H   23038.59159888  .00001911  00000-0  13806-3 0  9996,2 52663  53.2160 169.3771 0001193  90.6517 269.4612 15.08848635 41044,6917.854,95.437,540.544,538.894,0.0
52663.0,STARLINK-4037,PAYLOAD,2023-02-07 15:47:17,15.08851528,0.0001268,53.2152,169.0789,94.0006,266.1131,0.00018852,2.715e-05,0.0,0 STARLINK-4037,1 52663U 22053H   23038.65783765  .00002715  00000-0  18852-3 0  9999,2 52663  53.2152 169.0789 0001268  94.0006 266.1131 15.08851528 41051,6917.845,95.437,540.587,538.833,0.0
52663.0,STARLINK-4037,PAYLOAD,2023-02-07 18:58:02,15.08861589,0.0001247,53.2156,168.4828,97.1979,262.9155,0.00033397,5.034e-05,0.0,0 STARLINK-4037,1 52663U 22053H   23038.79031161  .00005034  00000-0  33397-3 0  9998,2 52663  53.2156 168.4828 0001247  97.1979 262.9155 15.08861589 41072,6917.814,95.436,540.542,538.817,0.0
52663.0,STARLINK-4037,PAYLOAD,2023-02-08 10:51:55,15.08837835,0.0001832,53.2152,165.5144,72.4123,287.7069,-0.00010172,-1.907e-05,0.0,0 STARLINK-4037,1 52663U 22053H   23039.45272567 -.00001907  00000-0 -10172-3 0  9992,2 52663  53.2152 165.5144 0001832  72.4123 287.7069 15.08837835 41171,6917.887,95.438,541.019,538.485,0.0
52663.0,STARLINK-4037,PAYLOAD,2023-02-08 14:02:41,15.08834135,0.0001699,53.2163,164.9193,70.4111,289.7065,-0.00015597,-2.769e-05,0.0,0 STARLINK-4037,1 52663U 22053H   23039.58520719 -.00002769  00000-0 -15597-3 0  9994,2 52663  53.2163 164.9193 0001699  70.4111 289.7065 15.08834135 41196,6917.898,95.438,540.939,538.588,0.0
52663.0,STARLINK-4037,PAYLOAD,2023-02-08 17:13:27,15.08849061,0.0001126,53.2163,164.3204,92.056,268.0561,5.0654e-05,5.19e-06,0.0,0 STARLINK-4037,1 52663U 22053H   23039.71767679  .00000519  00000-0  50654-4 0  9990,2 52663  53.2163 164.3204 0001126  92.0560 268.0561 15.08849061 41214,6917.853,95.437,540.497,538.939,0.0
52663.0,STARLINK-4037,PAYLOAD,2023-02-09 01:10:23,15.08833427,0.0001301,53.2143,162.8337,88.7854,271.3287,-0.00016345,-2.888e-05,0.0,0 STARLINK-4037,1 52663U 22053H   23040.04888584 -.00002888  00000-0 -16345-3 0  9998,2 52663  53.2143 162.8337 0001301  88.7854 271.3287 15.08833427 41261,6917.9,95.438,540.665,538.865,0.0
52663.0,STARLINK-4037,PAYLOAD,2023-02-09 10:42:42,15.08833839,0.0001364,53.2162,161.0519,88.4955,271.6194,-8.4925e-05,-1.639e-05,0.0,0 STARLINK-4037,1 52663U 22053H   23040.44632957 -.00001639  00000-0 -84925-4 0  9996,2 52663  53.2162 161.0519 0001364  88.4955 271.6194 15.08833839 41327,6917.899,95.438,540.708,538.821,0.0
52663.0,STARLINK-4037,PAYLOAD,2023-02-09 18:39:37,15.08853715,0.0001133,53.2155,159.562,75.6782,284.4336,0.00020381,2.958e-05,0.0,0 STARLINK-4037,1 52663U 22053H   23040.77751904  .00002958  00000-0  20381-3 0  9994,2 52663  53.2155 159.5620 0001133  75.6782 284.4336 15.08853715 41374,6917.838,95.437,540.487,538.92,0.0
52663.0,STARLINK-4037,PAYLOAD,2023-02-09 20:15:00,15.08861506,9.73e-05,53.2153,159.2639,98.6219,261.4884,0.00025392,3.758e-05,0.0,0 STARLINK-4037,1 52663U 22053H   23040.84375376  .00003758  00000-0  25392-3 0  9993,2 52663  53.2153 159.2639 0000973  98.6219 261.4884 15.08861506 41381,6917.815,95.436,540.353,539.007,0.0
52663.0,STARLINK-4037,PAYLOAD,2023-02-10 01:01:11,15.08824142,4.82e-05,53.2161,158.3757,165.1212,194.9794,-0.00029327,-4.95e-05,0.0,0 STARLINK-4037,1 52663U 22053H   23041.04249027 -.00004950  00000-0 -29327-3 0  9998,2 52663  53.2161 158.3757 0000482 165.1212 194.9794 15.08824142 41418,6917.929,95.439,540.127,539.46,0.0
52663.0,STARLINK-4037,PAYLOAD,2023-02-10 12:08:52,15.08855033,0.0001797,53.2168,156.2946,104.2418,255.8774,0.00045966,7.038e-05,0.0,0 STARLINK-4037,1 52663U 22053H   23041.50616260  .00007038  00000-0  45966-3 0  9991,2 52663  53.2168 156.2946 0001797 104.2418 255.8774 15.08855033 41489,6917.834,95.437,540.943,538.456,0.0
52663.0,STARLINK-4037,PAYLOAD,2023-02-10 18:30:23,15.08873879,0.0001221,53.2159,155.1024,90.0883,270.0249,0.00057093,8.818e-05,0.0,0 STARLINK-4037,1 52663U 22053H   23041.77111074  .00008818  00000-0  57093-3 0  9994,2 52663  53.2159 155.1024 0001221  90.0883 270.0249 15.08873879 41523,6917.777,95.435,540.486,538.797,0.0
52663.0,STARLINK-4037,PAYLOAD,2023-02-11 00:51:58,15.0882774,0.0001658,53.2157,153.9149,74.0976,286.0198,-0.00016483,-2.909e-05,0.0,0 STARLINK-4037,1 52663U 22053H   23042.03609275 -.00002909  00000-0 -16483-3 0  9994,2 52663  53.2157 153.9149 0001658  74.0976 286.0198 15.08827740 41564,6917.918,95.438,540.93,538.636,0.0
52663.0,STARLINK-4037,PAYLOAD,2023-02-11 11:59:39,15.08844421,0.0001423,53.2161,151.8347,76.2397,283.8753,0.00019585,2.831e-05,0.0,0 STARLINK-4037,1 52663U 22053H   23042.49976790  .00002831  00000-0  19585-3 0  9991,2 52663  53.2161 151.8347 0001423  76.2397 283.8753 15.08844421 41632,6917.867,95.437,540.716,538.747,0.0
52663.0,STARLINK-4037,PAYLOAD,2023-02-11 16:45:48,15.08858424,0.0001519,53.2156,150.9405,87.2094,272.9072,0.00055685,8.59e-05,0.0,0 STARLINK-4037,1 52663U 22053H   23042.69848190  .00008590  00000-0  55685-3 0  9994,2 52663  53.2156 150.9405 0001519  87.2094 272.9072 15.08858424 41667,6917.824,95.436,540.74,538.638,0.0
52663.0,STARLINK-4037,PAYLOAD,2023-02-11 18:21:11,15.08860473,0.0001568,53.2158,150.6438,92.7525,267.3647,0.00063049,9.766e-05,0.0,0 STARLINK-4037,1 52663U 22053H   23042.76472194  .00009766  00000-0  63049-3 0  9998,2 52663  53.2158 150.6438 0001568  92.7525 267.3647 15.08860473 41670,6917.818,95.436,540.768,538.598,0.0
52663.0,STARLINK-4037,PAYLOAD,2023-02-12 10:15:04,15.08827511,0.0001217,53.2151,147.6695,83.3749,276.7381,-1.8192e-05,-5.77e-06,0.0,0 STARLINK-4037,1 52663U 22053H   23043.42713225 -.00000577  00000-0 -18192-4 0  9998,2 52663  53.2151 147.6695 0001217  83.3749 276.7381 15.08827511 41775,6917.919,95.438,540.625,538.942,0.0
52663.0,STARLINK-4037,PAYLOAD,2023-02-12 13:25:50,15.0883417,0.0001177,53.2145,147.0751,88.8506,271.2621,0.00021812,3.185e-05,0.0,0 STARLINK-4037,1 52663U 22053H   23043.55961177  .00003185  00000-0  21812-3 0  9991,2 52663  53.2145 147.0751 0001177  88.8506 271.2621 15.08834170 41799,6917.898,95.438,540.577,538.949,0.0
52663.0,STARLINK-4037,PAYLOAD,2023-02-12 18:11:59,15.08863165,0.0001305,53.2154,146.1843,85.6198,274.4944,0.0027778,0.00044226,0.0,0 STARLINK-4037,1 52663U 22053H   23043.75833058  .00044226  00000-0  27778-2 0  9996,2 52663  53.2154 146.1843 0001305  85.6198 274.4944 15.08863165 41829,6917.81,95.436,540.577,538.772,0.0
52663.0,STARLINK-4037,PAYLOAD,2023-02-13 13:16:39,15.08833956,6.7e-05,53.2151,142.6141,111.0833,249.0231,0.0022281,0.00035344,0.0,0 STARLINK-4037,1 52663U 22053H   23044.55322933  .00035344  00000-0  22281-2 0  9995,2 52663  53.2151 142.6141 0000670 111.0833 249.0231 15.08833956 41947,6917.899,95.438,540.227,539.3,0.0
52663.0,STARLINK-4037,PAYLOAD,2023-02-13 22:48:58,15.088409,0.0001137,53.2156,140.8303,110.3845,249.7269,0.0018198,0.00028794,0.0,0 STARLINK-4037,1 52663U 22053H   23044.95067229  .00028794  00000-0  18198-2 0  9996,2 52663  53.2156 140.8303 0001137 110.3845 249.7269 15.08840900 42009,6917.878,95.437,540.529,538.956,0.0
52663.0,STARLINK-4037,PAYLOAD,2023-02-14 13:07:25,15.08886334,0.000113,53.2152,138.1538,103.74,256.3718,0.0022438,0.00035648,0.0,0 STARLINK-4037,1 52663U 22053H   23045.54682162  .00035648  00000-0  22438-2 0  9999,2 52663  53.2152 138.1538 0001130 103.7400 256.3718 15.08886334 42094,6917.739,95.435,540.385,538.822,0.0
52663.0,STARLINK-4037,PAYLOAD,2023-02-14 17:53:34,15.08906076,0.0001255,53.2151,137.2609,104.7709,255.3423,0.0024308,0.00038681,0.0,0 STARLINK-4037,1 52663U 22053H   23045.74553330  .00038681  00000-0  24308-2 0  9993,2 52663  53.2151 137.2609 0001255 104.7709 255.3423 15.08906076 42125,6917.678,95.433,540.412,538.675,0.0
52663.0,STARLINK-4037,PAYLOAD,2023-02-14 22:39:43,15.08816928,0.0004338,53.2149,136.3681,72.2017,287.9448,0.0010619,0.00016644,0.0,0 STARLINK-4037,1 52663U 22053H   23045.94425675  .00016644  00000-0  10619-2 0  9990,2 52663  53.2149 136.3681 0004338  72.2017 287.9448 15.08816928 42155,6917.951,95.439,542.817,536.815,0.0
52663.0,STARLINK-4037,PAYLOAD,2023-02-15 11:22:48,15.0886072,0.0001394,53.2167,133.9918,92.8038,267.3114,0.00015094,2.116e-05,0.0,0 STARLINK-4037,1 52663U 22053H   23046.47417277  .00002116  00000-0  15094-3 0  9990,2 52663  53.2167 133.9918 0001394  92.8038 267.3114 15.08860720 42231,6917.817,95.436,540.646,538.718,0.0
52663.0,STARLINK-4037,PAYLOAD,2023-02-15 16:08:57,15.08893243,0.0001326,53.2162,133.0976,81.2516,278.8626,0.0018615,0.00029505,0.0,0 STARLINK-4037,1 52663U 22053H   23046.67288622  .00029505  00000-0  18615-2 0  9994,2 52663  53.2162 133.0976 0001326  81.2516 278.8626 15.08893243 42263,6917.718,95.434,540.5,538.665,0.0
52663.0,STARLINK-4037,PAYLOAD,2023-02-16 11:13:35,15.08875541,0.0001172,53.2151,129.5301,119.9691,240.1417,0.0028808,0.00045903,0.0,0 STARLINK-4037,1 52663U 22053H   23047.46776689  .00045903  00000-0  28808-2 0  9992,2 52663  53.2151 129.5301 0001172 119.9691 240.1417 15.08875541 42389,6917.772,95.435,540.448,538.826,0.0
